RADUGA 32               
1 23448U 94087A   09188.13743722 -.00000124  00000-0  10000-3 0  1707
2 23448  10.2746  52.1685 0005725 119.0203 241.0325  1.00282768 70889
RADUGA-1 4              
1 25642U 99010A   09188.09402090 -.00000349  00000-0  10000-3 0  2723
2 25642   8.9212  68.7725 0002212 147.8685 212.0886  1.00237574 37921
RADUGA-1 5              
1 26477U 00049A   09190.55920517  .00000067  00000-0  10000-3 0  6053
2 26477   6.5562  66.8651 0001302 339.4810 138.7829  1.00325576 32459
RADUGA-1 7              
1 28194U 04010A   09191.11290664 -.00000181  00000-0  10000-3 0  1827
2 28194   3.8822  84.6042 0001807  57.5958 271.5887  1.00281078 19362
RADUGA-1M 1             
1 32373U 07058A   09190.94456894  .00000000  00000-0  10000-3 0  4748
2 32373   0.0226 268.6711 0003070 194.5078 234.8622  1.00270716  6697
